GLOBALSTAR M068         
1 32266U 07048D   24181.60664722 -.00000029  00000+0  41697-3 0  9998
2 32266  51.9900 297.0141 0001519 100.8145 272.3182 12.62792870773303
GLOBALSTAR M079         
1 37188U 10054A   24181.59456490 -.00000075  00000+0  16161-3 0  9995
2 37188  52.0024 133.1327 0000222 351.0331 179.9093 12.62271354631926
GLOBALSTAR M074         
1 37189U 10054B   24181.62110749 -.00000089  00000+0  80945-4 0  9991
2 37189  52.0002 132.4304 0000417  34.6035 136.0734 12.62269821632609
GLOBALSTAR M076         
1 37190U 10054C   24181.64749053 -.00000097  00000+0  38816-4 0  9990
2 37190  52.0016 132.4877 0000574 343.0123 188.5288 12.62262277632255
GLOBALSTAR M077         
1 37191U 10054D   24181.47598421 -.00000093  00000+0  58940-4 0  9999
2 37191  52.0079  89.7646 0000704  46.3585 125.4257 12.62274128632606
GLOBALSTAR M075         
1 37192U 10054E   24181.42150353 -.00000094  00000+0  53867-4 0  9997
2 37192  51.9917 175.6300 0000047  78.8286  85.1915 12.62261213631452
GLOBALSTAR M073         
1 37193U 10054F   24181.50256015 -.00000091  00000+0  70994-4 0  9996
2 37193  52.0064  88.9345 0000610  40.0010 131.0932 12.62266427633291
GLOBALSTAR M083         
1 37739U 11033A   24181.81225205 -.00000098  00000+0  31901-4 0  9993
2 37739  51.9872  37.2026 0000792  92.5911 348.4396 12.62261410602716
GLOBALSTAR M088         
1 37740U 11033B   24181.61281396 -.00000091  00000+0  71854-4 0  9990
2 37740  51.9748 303.5993 0000788 132.1537 242.0323 12.62264629597876
GLOBALSTAR M091         
1 37741U 11033C   24181.54705683 -.00000094  00000+0  55156-4 0  9993
2 37741  51.9998 266.7269 0000805 152.5084 221.3235 12.62264277598651
GLOBALSTAR M085         
1 37742U 11033D   24181.56686565 -.00000085  00000+0  10348-3 0  9996
2 37742  51.9846 218.0146 0000455 170.5708 354.8081 12.62263142599160
GLOBALSTAR M081         
1 37743U 11033E   24181.58695639 -.00000083  00000+0  11389-3 0  9995
2 37743  51.9934 220.5240 0000448 197.1152 298.7029 12.62266521599311
GLOBALSTAR M089         
1 37744U 11033F   24181.39199410 -.00000080  00000+0  13471-3 0  9992
2 37744  51.9901 175.4123 0000383 338.8751 169.1704 12.62265511600133
GLOBALSTAR M084         
1 38040U 11080A   24181.78554421 -.00000097  00000+0  35628-4 0  9991
2 38040  52.0024  41.3124 0000939  58.6905  20.0591 12.62263852578441
GLOBALSTAR M080         
1 38041U 11080B   24181.59028552 -.00000078  00000+0  14190-3 0  9991
2 38041  52.0077  43.3893 0000780  43.7276 347.7401 12.62262444578260
GLOBALSTAR M082         
1 38042U 11080C   24181.52127179 -.00000090  00000+0  74286-4 0  9997
2 38042  52.0092 359.0095 0001348 110.7956 266.2663 12.62270724578962
GLOBALSTAR M092         
1 38043U 11080D   24181.52869897 -.00000094  00000+0  51953-4 0  9998
2 38043  52.0088  89.3424 0000757  52.7545 118.7865 12.62263067577415
GLOBALSTAR M090         
1 38044U 11080E   24181.54937580 -.00000094  00000+0  51987-4 0  9993
2 38044  51.9904 353.1870 0001033 108.4028 276.3083 12.62264367579083
GLOBALSTAR M086         
1 38045U 11080F   24181.58732060 -.00000083  00000+0  11545-3 0  9997
2 38045  51.9915 353.5936 0000310 186.4093 251.6437 12.62263782579032
GLOBALSTAR M097         
1 39072U 13005A   24181.51797995 -.00000098  00000+0  34501-4 0  9992
2 39072  52.0048 267.9989 0000668 155.5902 204.4997 12.62263944526275
GLOBALSTAR M093         
1 39073U 13005B   24181.64964431 -.00000077  00000+0  14702-3 0  9995
2 39073  51.9808 261.4637 0000718 169.7642 190.3239 12.62275586526368
GLOBALSTAR M094         
1 39074U 13005C   24181.41201832 -.00000091  00000+0  73993-4 0  9994
2 39074  51.9928 176.2134 0000192 215.3645 144.7209 12.62267352527828
GLOBALSTAR M096         
1 39075U 13005D   24181.50435481 -.00000091  00000+0  69043-4 0  9995
2 39075  52.0052 224.1731 0000600 177.6647 182.4222 12.62267373526759
GLOBALSTAR M078         
1 39076U 13005E   24181.63652252 -.00000206  00000+0 -57282-3 0  9997
2 39076  51.9892 308.7609 0001649 116.6845 243.4191 12.62270827525390
GLOBALSTAR M095         
1 39077U 13005F   24181.50409514 -.00000238  00000+0 -74903-3 0  9999
2 39077  51.9816 306.5330 0001324 134.6412 225.4562 12.62262536525237
GLOBALSTAR M087         
1 52888U 22064A   24181.36334270 -.00000096  00000+0  61029-4 0  9996
2 52888  51.9735 165.9231 0009621  36.3687 323.7865 13.37577272 99153
